OBJECT_NAME,OBJECT_ID,EPOCH,MEAN_MOTION,ECCENTRICITY,INCLINATION,RA_OF_ASC_NODE,ARG_OF_PERICENTER,MEAN_ANOMALY,EPHEMERIS_TYPE,CLASSIFICATION_TYPE,NORAD_CAT_ID,ELEMENT_SET_NO,REV_AT_EPOCH,BSTAR,MEAN_MOTION_DOT,MEAN_MOTION_DDOT
GAOFEN-11 01,2018-063A,2026-07-15T14:29:39.208992,15.56079264,.00031019,97.1273,263.4159,197.2404,162.8746,0,U,43585,999,44476,.17416415E-3,.12052E-3,0
ICESAT-2,2018-070A,2026-07-15T13:45:16.436160,15.28181981,.00056532,92.0096,298.6499,58.2505,301.9295,0,U,43613,999,43679,.20536821E-3,.5642E-4,0
HYSIS,2018-096A,2026-07-15T13:34:10.254144,14.78673167,.0001842,97.9834,263.0890,83.8182,276.3238,0,U,43719,999,41161,.16153805E-3,.1132E-4,0
KAZSTSAT,2018-099AB,2026-07-15T01:11:54.537792,14.99955337,.00073704,97.4318,226.7225,341.6349,18.4608,0,U,43783,999,41548,.42847369E-4,.476E-5,0
SAUDISAT 5A,2018-102A,2026-07-15T13:59:06.478368,15.28323875,.00103956,97.3052,257.6189,42.5687,317.6357,0,U,43831,999,42001,.11443714E-3,.3087E-4,0
SAUDISAT 5B,2018-102C,2026-07-15T14:19:34.071168,15.28566594,.00111768,97.3162,260.7540,43.8960,316.3166,0,U,43833,999,42013,.10622513E-3,.2882E-4,0
GAOFEN-10R,2019-066A,2026-07-15T15:01:38.174592,14.83057629,.00068621,98.0509,150.4144,51.9435,308.2397,0,U,44622,999,36659,.68934628E-4,.506E-5,0
CARTOSAT-3,2019-081A,2026-07-15T14:38:48.736320,15.19187664,.00130398,97.4295,258.0177,57.4206,302.8286,0,U,44804,999,36778,.95567083E-4,.1946E-4,0
GAOFEN-12 01,2019-082A,2026-07-15T14:26:17.951424,14.80479647,.0000951,97.8109,202.2321,54.9074,305.2227,0,U,44819,999,35829,.26350058E-4,.151E-5,0
CSG-1,2019-092A,2026-07-15T14:35:59.152128,14.82156994,.00014765,97.8896,19.8003,90.7510,269.3872,0,U,44873,999,35568,.2683644E-4,.161E-5,0
NEMO-HD,2020-061F,2026-07-15T13:33:26.822592,15.45143843,.00009914,97.1904,258.2394,97.9738,262.1624,0,U,46277,999,32636,.14245473E-3,.6661E-4,0
SENTINEL-6A,2020-086A,2026-07-15T00:52:48.103968,12.80930172,.00077841,66.0412,77.2098,269.7720,90.2404,0,U,46984,999,26389,.94152414E-4,-.39E-6,0
CAS500-1,2021-022A,2026-07-15T15:08:31.708320,15.20134227,.00052241,97.3865,91.3036,169.5576,190.5769,0,U,47932,999,29508,.15437689E-3,.3271E-4,0
GAOFEN-12 02,2021-026A,2026-07-15T14:46:37.877088,14.80316218,.00058666,97.9935,194.6819,131.0595,229.1124,0,U,48079,999,28596,.25036835E-4,.138E-5,0
PLEIADES NEO 3,2021-034A,2026-07-15T14:48:09.937152,14.81667448,.00013199,97.8945,270.9742,93.5504,266.5860,0,U,48268,999,28186,.15985264E-4,.74E-6,0
PLEIADES NEO 4,2021-073E,2026-07-15T13:59:31.913664,14.81675518,.00013747,97.8944,270.9372,93.5496,266.5875,0,U,49070,999,26557,.1556741E-3,.1173E-4,0
LANDSAT 9,2021-088A,2026-07-15T05:07:57.000288,14.57095533,.00011386,98.2270,266.0503,88.4793,271.6535,0,U,49260,999,25508,.46258313E-4,.163E-5,0
CSG-2,2022-008A,2026-07-15T15:24:33.375744,14.82148540,.00015112,97.8885,19.8275,86.5189,273.6197,0,U,51444,999,24080,-.45146504E-4,-.412E-5,0
GAOFEN-12 03,2022-069A,2026-07-15T13:59:21.723648,14.80076589,.00024145,97.8247,83.7332,72.8652,287.2824,0,U,52912,999,21881,.9796736E-4,.692E-5,0
SWOT,2022-173A,2026-07-15T13:40:42.689856,14.00172457,.00002566,77.6110,356.9920,76.0409,284.0771,0,U,54754,999,18312,.18369112E-4,.25E-6,0
GAOFEN-12 04,2023-123A,2026-07-15T14:27:50.517792,14.79775768,.00035014,97.9101,114.1958,49.6445,310.5072,0,U,57654,999,15683,.66880379E-4,.452E-5,0
PARS 1,2024-039Q,2026-07-15T14:22:37.870752,15.46295504,.00097231,97.4838,178.4285,25.6833,334.4897,0,U,59065,999,13303,.13945963E-3,.6788E-4,0
RESURS-P 4,2024-061A,2026-07-15T14:33:31.815936,15.32281696,.00032265,97.2759,144.0149,88.9041,271.2570,0,U,59371,999,12811,.55918096E-4,.1667E-4,0
LEGION 1,2024-081A,2026-07-15T14:16:38.850240,15.16845846,.00077013,97.5013,274.1506,267.8276,92.2075,0,U,59625,999,12184,.9439996E-4,.179E-4,0
LEGION 2,2024-081B,2026-07-15T11:50:25.276704,15.16823771,.00102414,97.5012,274.1470,232.4392,127.5912,0,U,59626,999,12183,.99140115E-4,.1883E-4,0
LEGION 3,2024-146A,2026-07-15T14:24:15.907104,15.15657182,.00081742,45.0018,238.2179,336.2769,23.7732,0,U,60452,999,10633,.91985395E-4,.1516E-4,0
LEGION 4,2024-146B,2026-07-15T15:58:47.807040,15.15683793,.00089663,45.0029,329.7331,116.7032,243.4765,0,U,60453,999,10519,.10813059E-3,.183E-4,0
SENTINEL-2C,2024-157A,2026-07-15T05:08:54.226464,14.30815673,.00009541,98.5685,270.5987,104.0012,256.1277,0,U,60989,999,9699,.33668153E-4,.45E-6,0
IONOSFERA-M 1,2024-199A,2026-07-15T14:31:47.936352,14.22759211,.00021514,98.7134,69.4727,72.2125,287.9287,0,U,61735,999,13174,.31585928E-4,.27E-6,0
