GAOFEN-11 01            
1 43585U 18063A   26196.60392603  .00012052  00000+0  17416-3 0  9997
2 43585  97.1273 263.4159 0003101 197.2404 162.8746 15.56079264444762
ICESAT-2                
1 43613U 18070A   26196.57310690  .00005642  00000+0  20537-3 0  9994
2 43613  92.0096 298.6499 0005653  58.2505 301.9295 15.28181981436798
HYSIS                   
1 43719U 18096A   26196.56539646  .00001132  00000+0  16154-3 0  9992
2 43719  97.9834 263.0890 0001842  83.8182 276.3238 14.78673167411613
KAZSTSAT                
1 43783U 18099AB  26196.04993678  .00000476  00000+0  42847-4 0  9997
2 43783  97.4318 226.7225 0007370 341.6349  18.4608 14.99955337415486
SAUDISAT 5A             
1 43831U 18102A   26196.58271387  .00003087  00000+0  11444-3 0  9990
2 43831  97.3052 257.6189 0010395  42.5687 317.6357 15.28323875420018
SAUDISAT 5B             
1 43833U 18102C   26196.59692212  .00002882  00000+0  10623-3 0  9997
2 43833  97.3162 260.7540 0011176  43.8960 316.3166 15.28566594420138
GAOFEN-10R              
1 44622U 19066A   26196.62613628  .00000506  00000+0  68935-4 0  9993
2 44622  98.0509 150.4144 0006862  51.9435 308.2397 14.83057629366595
CARTOSAT-3              
1 44804U 19081A   26196.61028630  .00001946  00000+0  95567-4 0  9994
2 44804  97.4295 258.0177 0013039  57.4206 302.8286 15.19187664367786
GAOFEN-12 01            
1 44819U 19082A   26196.60159666  .00000151  00000+0  26350-4 0  9995
2 44819  97.8109 202.2321 0000951  54.9074 305.2227 14.80479647358296
CSG-1                   
1 44873U 19092A   26196.60832352  .00000161  00000+0  26836-4 0  9996
2 44873  97.8896  19.8003 0001476  90.7510 269.3872 14.82156994355689
NEMO-HD                 
1 46277U 20061F   26196.56489378  .00006661  00000+0  14245-3 0  9996
2 46277  97.1904 258.2394 0000991  97.9738 262.1624 15.45143843326364
SENTINEL-6A             
1 46984U 20086A   26196.03666787 -.00000039  00000+0  94152-4 0  9991
2 46984  66.0412  77.2098 0007784 269.7720  90.2404 12.80930172263894
CAS500-1                
1 47932U 21022A   26196.63092255  .00003271  00000+0  15438-3 0  9994
2 47932  97.3865  91.3036 0005224 169.5576 190.5769 15.20134227295087
GAOFEN-12 02            
1 48079U 21026A   26196.61571617  .00000138  00000+0  25037-4 0  9999
2 48079  97.9935 194.6819 0005866 131.0595 229.1124 14.80316218285964
PLEIADES NEO 3          
1 48268U 21034A   26196.61678168  .00000074  00000+0  15985-4 0  9997
2 48268  97.8945 270.9742 0001319  93.5504 266.5860 14.81667448281860
PLEIADES NEO 4          
1 49070U 21073E   26196.58300826  .00001173  00000+0  15567-3 0  9997
2 49070  97.8944 270.9372 0001374  93.5496 266.5875 14.81675518265574
LANDSAT 9               
1 49260U 21088A   26196.21385417  .00000163  00000+0  46258-4 0  9993
2 49260  98.2270 266.0503 0001138  88.4793 271.6535 14.57095533255086
CSG-2                   
1 51444U 22008A   26196.64205296 -.00000412  00000+0 -45147-4 0  9991
2 51444  97.8885  19.8275 0001511  86.5189 273.6197 14.82148540240808
GAOFEN-12 03            
1 52912U 22069A   26196.58289032  .00000692  00000+0  97967-4 0  9997
2 52912  97.8247  83.7332 0002414  72.8652 287.2824 14.80076589218816
SWOT                    
1 54754U 22173A   26196.56993854  .00000025  00000+0  18369-4 0  9990
2 54754  77.6110 356.9920 0000256  76.0409 284.0771 14.00172457183127
GAOFEN-12 04            
1 57654U 23123A   26196.60266803  .00000452  00000+0  66880-4 0  9995
2 57654  97.9101 114.1958 0003501  49.6445 310.5072 14.79775768156838
PARS 1                  
1 59065U 24039Q   26196.59904943  .00006788  00000+0  13946-3 0  9994
2 59065  97.4838 178.4285 0009723  25.6833 334.4897 15.46295504133038
RESURS-P 4              
1 59371U 24061A   26196.60661824  .00001667  00000+0  55918-4 0  9996
2 59371  97.2759 144.0149 0003226  88.9041 271.2570 15.32281696128112
LEGION 1                
1 59625U 24081A   26196.59489410  .00001790  00000+0  94400-4 0  9993
2 59625  97.5013 274.1506 0007701 267.8276  92.2075 15.16845846121841
LEGION 2                
1 59626U 24081B   26196.49334811  .00001883  00000+0  99140-4 0  9996
2 59626  97.5012 274.1470 0010241 232.4392 127.5912 15.16823771121835
LEGION 3                
1 60452U 24146A   26196.60018411  .00001516  00000+0  91985-4 0  9997
2 60452  45.0018 238.2179 0008174 336.2769  23.7732 15.15657182106333
LEGION 4                
1 60453U 24146B   26196.66583110  .00001830  00000+0  10813-3 0  9996
2 60453  45.0029 329.7331 0008966 116.7032 243.4765 15.15683793105192
SENTINEL-2C             
1 60989U 24157A   26196.21451651  .00000045  00000+0  33668-4 0  9998
2 60989  98.5685 270.5987 0000954 104.0012 256.1277 14.30815673 96990
IONOSFERA-M 1           
1 61735U 24199A   26196.60541593  .00000027  00000+0  31586-4 0  9999
2 61735  98.7134  69.4727 0002151  72.2125 287.9287 14.22759211131742
